STARLINK-3788           
1 52271U 22041L   25319.82318002  .00017127  00000+0  10908-2 0  9997
2 52271  53.2153 260.2850 0001588  86.6676 273.4497 15.08865538197172
STARLINK-3781           
1 52272U 22041M   25319.55182203  .00007224  00000+0  47150-3 0  9997
2 52272  53.2176 261.5456 0001038  90.0459 270.0652 15.08839988197134
STARLINK-3782           
1 52273U 22041N   25319.85453821  .00009602  00000+0  62016-3 0  9998
2 52273  53.2155 250.5302 0000842 101.1967 258.9119 15.08861778197315
STARLINK-3790           
1 52274U 22041P   25319.80844569  .00005120  00000+0  33940-3 0  9992
2 52274  53.2171 260.3584 0001367  85.9078 274.2070 15.08853919197179
STARLINK-3784           
1 52275U 22041Q   25319.55085752  .00014834  00000+0  94755-3 0  9999
2 52275  53.2160 261.5096 0001291 114.6666 245.4461 15.08862716197133
STARLINK-3778           
1 52276U 22041R   25319.53981466  .00015526  00000+0  99078-3 0  9997
2 52276  53.2162 261.5579 0001856  93.0016 267.1188 15.08864124197130
STARLINK-3780           
1 52278U 22041T   25319.86733685  .00005272  00000+0  34902-3 0  9995
2 52278  53.2168 260.0894 0001754  95.2582 264.8610 15.08846170197181
STARLINK-3764           
1 52280U 22041V   25319.85629137  .00011535  00000+0  74155-3 0  9996
2 52280  53.2160 260.1376 0001471 105.9804 254.1350 15.08845122197183
STARLINK-3779           
1 52281U 22041W   25319.54076774  .00008799  00000+0  57016-3 0  9991
2 52281  53.2168 261.5541 0001345 112.0824 248.0311 15.08843299197139
STARLINK-3783           
1 52282U 22041X   25319.84985036  .00004927  00000+0  32734-3 0  9994
2 52282  53.2168 250.1695 0001257 100.8258 259.2876 15.08849570197310
STARLINK-3789           
1 52283U 22041Y   25319.86365000  .00004473  00000+0  29900-3 0  9997
2 52283  53.2186 260.1040 0001720  96.2160 263.9028 15.08837546197187
STARLINK-3561           
1 52284U 22041Z   25319.84250685  .00010049  00000+0  64917-3 0  9991
2 52284  53.2146 250.1961 0001834  71.9703 288.1489 15.08807169197317
STARLINK-3802           
1 52286U 22041AB  25319.83513014  .00000635  00000+0  57995-4 0  9999
2 52286  53.2170 250.2350 0001441  79.0882 281.0272 15.08838350197318
STARLINK-3822           
1 52287U 22041AC  25318.85901795  .00015667  00000+0  10008-2 0  9991
2 52287  53.2155 264.6148 0001465  64.3688 295.7455 15.08818997197032
STARLINK-3776           
1 52288U 22041AD  25319.83145490 -.00000584  00000+0 -18586-4 0  9998
2 52288  53.2177 250.2486 0001588  91.1595 268.9579 15.08817373197311
STARLINK-3751           
1 52289U 22041AE  25319.84617728  .00010391  00000+0  66972-3 0  9994
2 52289  53.2155 250.1825 0001310  79.0893 281.0246 15.08854657197316
STARLINK-3772           
1 52290U 22041AF  25319.82136899  .00007452  00000+0  48560-3 0  9996
2 52290  53.2162 250.2930 0001100  78.2349 281.8767 15.08853848197315
