[{"OBJECT_NAME":"STARLINK-3788","OBJECT_ID":"2022-041L","EPOCH":"2025-11-15T19:45:22.753728","MEAN_MOTION":15.08865538,"ECCENTRICITY":0.0001588,"INCLINATION":53.2153,"RA_OF_ASC_NODE":260.285,"ARG_OF_PERICENTER":86.6676,"MEAN_ANOMALY":273.4497,"EPHEMERIS_TYPE":0,"CLASSIFICATION_TYPE":"U","NORAD_CAT_ID":52271,"ELEMENT_SET_NO":999,"REV_AT_EPOCH":19717,"BSTAR":0.0010908,"MEAN_MOTION_DOT":0.00017127,"MEAN_MOTION_DDOT":0},{"OBJECT_NAME":"STARLINK-3781","OBJECT_ID":"2022-041M","EPOCH":"2025-11-15T13:14:37.423392","MEAN_MOTION":15.08839988,"ECCENTRICITY":0.0001038,"INCLINATION":53.2176,"RA_OF_ASC_NODE":261.5456,"ARG_OF_PERICENTER":90.0459,"MEAN_ANOMALY":270.0652,"EPHEMERIS_TYPE":0,"CLASSIFICATION_TYPE":"U","NORAD_CAT_ID":52272,"ELEMENT_SET_NO":999,"REV_AT_EPOCH":19713,"BSTAR":0.0004715,"MEAN_MOTION_DOT":7.224e-5,"MEAN_MOTION_DDOT":0},{"OBJECT_NAME":"STARLINK-3782","OBJECT_ID":"2022-041N","EPOCH":"2025-11-15T20:30:32.101344","MEAN_MOTION":15.08861778,"ECCENTRICITY":8.42e-5,"INCLINATION":53.2155,"RA_OF_ASC_NODE":250.5302,"ARG_OF_PERICENTER":101.1967,"MEAN_ANOMALY":258.9119,"EPHEMERIS_TYPE":0,"CLASSIFICATION_TYPE":"U","NORAD_CAT_ID":52273,"ELEMENT_SET_NO":999,"REV_AT_EPOCH":19731,"BSTAR":0.00062016,"MEAN_MOTION_DOT":9.602e-5,"MEAN_MOTION_DDOT":0},{"OBJECT_NAME":"STARLINK-3790","OBJECT_ID":"2022-041P","EPOCH":"2025-11-15T19:24:09.707616","MEAN_MOTION":15.08853919,"ECCENTRICITY":0.0001367,"INCLINATION":53.2171,"RA_OF_ASC_NODE":260.3584,"ARG_OF_PERICENTER":85.9078,"MEAN_ANOMALY":274.207,"EPHEMERIS_TYPE":0,"CLASSIFICATION_TYPE":"U","NORAD_CAT_ID":52274,"ELEMENT_SET_NO":999,"REV_AT_EPOCH":19717,"BSTAR":0.0003394,"MEAN_MOTION_DOT":5.12e-5,"MEAN_MOTION_DDOT":0},{"OBJECT_NAME":"STARLINK-3784","OBJECT_ID":"2022-041Q","EPOCH":"2025-11-15T13:13:14.089728","MEAN_MOTION":15.08862716,"ECCENTRICITY":0.0001291,"INCLINATION":53.216,"RA_OF_ASC_NODE":261.5096,"ARG_OF_PERICENTER":114.6666,"MEAN_ANOMALY":245.4461,"EPHEMERIS_TYPE":0,"CLASSIFICATION_TYPE":"U","NORAD_CAT_ID":52275,"ELEMENT_SET_NO":999,"REV_AT_EPOCH":19713,"BSTAR":0.00094755,"MEAN_MOTION_DOT":0.00014834,"MEAN_MOTION_DDOT":0},{"OBJECT_NAME":"STARLINK-3778","OBJECT_ID":"2022-041R","EPOCH":"2025-11-15T12:57:19.986624","MEAN_MOTION":15.08864124,"ECCENTRICITY":0.0001856,"INCLINATION":53.2162,"RA_OF_ASC_NODE":261.5579,"ARG_OF_PERICENTER":93.0016,"MEAN_ANOMALY":267.1188,"EPHEMERIS_TYPE":0,"CLASSIFICATION_TYPE":"U","NORAD_CAT_ID":52276,"ELEMENT_SET_NO":999,"REV_AT_EPOCH":19713,"BSTAR":0.00099078,"MEAN_MOTION_DOT":0.00015526,"MEAN_MOTION_DDOT":0},{"OBJECT_NAME":"STARLINK-3780","OBJECT_ID":"2022-041T","EPOCH":"2025-11-15T20:48:57.903840","MEAN_MOTION":15.0884617,"ECCENTRICITY":0.0001754,"INCLINATION":53.2168,"RA_OF_ASC_NODE":260.0894,"ARG_OF_PERICENTER":95.2582,"MEAN_ANOMALY":264.861,"EPHEMERIS_TYPE":0,"CLASSIFICATION_TYPE":"U","NORAD_CAT_ID":52278,"ELEMENT_SET_NO":999,"REV_AT_EPOCH":19718,"BSTAR":0.00034902,"MEAN_MOTION_DOT":5.272e-5,"MEAN_MOTION_DDOT":0},{"OBJECT_NAME":"STARLINK-3764","OBJECT_ID":"2022-041V","EPOCH":"2025-11-15T20:33:03.574368","MEAN_MOTION":15.08845122,"ECCENTRICITY":0.0001471,"INCLINATION":53.216,"RA_OF_ASC_NODE":260.1376,"ARG_OF_PERICENTER":105.9804,"MEAN_ANOMALY":254.135,"EPHEMERIS_TYPE":0,"CLASSIFICATION_TYPE":"U","NORAD_CAT_ID":52280,"ELEMENT_SET_NO":999,"REV_AT_EPOCH":19718,"BSTAR":0.00074155,"MEAN_MOTION_DOT":0.00011535,"MEAN_MOTION_DDOT":0},{"OBJECT_NAME":"STARLINK-3779","OBJECT_ID":"2022-041W","EPOCH":"2025-11-15T12:58:42.332736","MEAN_MOTION":15.08843299,"ECCENTRICITY":0.0001345,"INCLINATION":53.2168,"RA_OF_ASC_NODE":261.5541,"ARG_OF_PERICENTER":112.0824,"MEAN_ANOMALY":248.0311,"EPHEMERIS_TYPE":0,"CLASSIFICATION_TYPE":"U","NORAD_CAT_ID":52281,"ELEMENT_SET_NO":999,"REV_AT_EPOCH":19713,"BSTAR":0.00057016,"MEAN_MOTION_DOT":8.799e-5,"MEAN_MOTION_DDOT":0},{"OBJECT_NAME":"STARLINK-3783","OBJECT_ID":"2022-041X","EPOCH":"2025-11-15T20:23:47.071104","MEAN_MOTION":15.0884957,"ECCENTRICITY":0.0001257,"INCLINATION":53.2168,"RA_OF_ASC_NODE":250.1695,"ARG_OF_PERICENTER":100.8258,"MEAN_ANOMALY":259.2876,"EPHEMERIS_TYPE":0,"CLASSIFICATION_TYPE":"U","NORAD_CAT_ID":52282,"ELEMENT_SET_NO":999,"REV_AT_EPOCH":19731,"BSTAR":0.00032734,"MEAN_MOTION_DOT":4.927e-5,"MEAN_MOTION_DDOT":0},{"OBJECT_NAME":"STARLINK-3789","OBJECT_ID":"2022-041Y","EPOCH":"2025-11-15T20:43:39.360000","MEAN_MOTION":15.08837546,"ECCENTRICITY":0.000172,"INCLINATION":53.2186,"RA_OF_ASC_NODE":260.104,"ARG_OF_PERICENTER":96.216,"MEAN_ANOMALY":263.9028,"EPHEMERIS_TYPE":0,"CLASSIFICATION_TYPE":"U","NORAD_CAT_ID":52283,"ELEMENT_SET_NO":999,"REV_AT_EPOCH":19718,"BSTAR":0.000299,"MEAN_MOTION_DOT":4.473e-5,"MEAN_MOTION_DDOT":0},{"OBJECT_NAME":"STARLINK-3561","OBJECT_ID":"2022-041Z","EPOCH":"2025-11-15T20:13:12.591840","MEAN_MOTION":15.08807169,"ECCENTRICITY":0.0001834,"INCLINATION":53.2146,"RA_OF_ASC_NODE":250.1961,"ARG_OF_PERICENTER":71.9703,"MEAN_ANOMALY":288.1489,"EPHEMERIS_TYPE":0,"CLASSIFICATION_TYPE":"U","NORAD_CAT_ID":52284,"ELEMENT_SET_NO":999,"REV_AT_EPOCH":19731,"BSTAR":0.00064917,"MEAN_MOTION_DOT":0.00010049,"MEAN_MOTION_DDOT":0},{"OBJECT_NAME":"STARLINK-3802","OBJECT_ID":"2022-041AB","EPOCH":"2025-11-15T20:02:35.244096","MEAN_MOTION":15.0883835,"ECCENTRICITY":0.0001441,"INCLINATION":53.217,"RA_OF_ASC_NODE":250.235,"ARG_OF_PERICENTER":79.0882,"MEAN_ANOMALY":281.0272,"EPHEMERIS_TYPE":0,"CLASSIFICATION_TYPE":"U","NORAD_CAT_ID":52286,"ELEMENT_SET_NO":999,"REV_AT_EPOCH":19731,"BSTAR":5.7995e-5,"MEAN_MOTION_DOT":6.35e-6,"MEAN_MOTION_DDOT":0},{"OBJECT_NAME":"STARLINK-3822","OBJECT_ID":"2022-041AC","EPOCH":"2025-11-14T20:36:59.150880","MEAN_MOTION":15.08818997,"ECCENTRICITY":0.0001465,"INCLINATION":53.2155,"RA_OF_ASC_NODE":264.6148,"ARG_OF_PERICENTER":64.3688,"MEAN_ANOMALY":295.7455,"EPHEMERIS_TYPE":0,"CLASSIFICATION_TYPE":"U","NORAD_CAT_ID":52287,"ELEMENT_SET_NO":999,"REV_AT_EPOCH":19703,"BSTAR":0.0010008,"MEAN_MOTION_DOT":0.00015667,"MEAN_MOTION_DDOT":0},{"OBJECT_NAME":"STARLINK-3776","OBJECT_ID":"2022-041AD","EPOCH":"2025-11-15T19:57:17.703360","MEAN_MOTION":15.08817373,"ECCENTRICITY":0.0001588,"INCLINATION":53.2177,"RA_OF_ASC_NODE":250.2486,"ARG_OF_PERICENTER":91.1595,"MEAN_ANOMALY":268.9579,"EPHEMERIS_TYPE":0,"CLASSIFICATION_TYPE":"U","NORAD_CAT_ID":52288,"ELEMENT_SET_NO":999,"REV_AT_EPOCH":19731,"BSTAR":-1.8586e-5,"MEAN_MOTION_DOT":-5.84e-6,"MEAN_MOTION_DDOT":0},{"OBJECT_NAME":"STARLINK-3751","OBJECT_ID":"2022-041AE","EPOCH":"2025-11-15T20:18:29.716992","MEAN_MOTION":15.08854657,"ECCENTRICITY":0.000131,"INCLINATION":53.2155,"RA_OF_ASC_NODE":250.1825,"ARG_OF_PERICENTER":79.0893,"MEAN_ANOMALY":281.0246,"EPHEMERIS_TYPE":0,"CLASSIFICATION_TYPE":"U","NORAD_CAT_ID":52289,"ELEMENT_SET_NO":999,"REV_AT_EPOCH":19731,"BSTAR":0.00066972,"MEAN_MOTION_DOT":0.00010391,"MEAN_MOTION_DDOT":0},{"OBJECT_NAME":"STARLINK-3772","OBJECT_ID":"2022-041AF","EPOCH":"2025-11-15T19:42:46.280736","MEAN_MOTION":15.08853848,"ECCENTRICITY":0.00011,"INCLINATION":53.2162,"RA_OF_ASC_NODE":250.293,"ARG_OF_PERICENTER":78.2349,"MEAN_ANOMALY":281.8767,"EPHEMERIS_TYPE":0,"CLASSIFICATION_TYPE":"U","NORAD_CAT_ID":52290,"ELEMENT_SET_NO":999,"REV_AT_EPOCH":19731,"BSTAR":0.0004856,"MEAN_MOTION_DOT":7.452e-5,"MEAN_MOTION_DDOT":0}]
